1 53919U 22119AK  22282.58334491  .00032838  00000-0  23764-3 0  9994
2 53919  53.2182 180.6260 0001052  86.3556 156.0573 15.73183841  1306